start=new Date('2021-10-29T00:00:00.000Z').valueOf();
sats=[{"EPOCH":"2021-10-28T20:08:25.210752","PERIOD":"95.592","SEMIMAJOR_AXIS":"6925.353","BSTAR":"-0.00004898500000","LAUNCH_DATE":"2020-01-29","MEAN_ANOMALY":"285.3633","COUNTRY_CODE":"US","ELEMENT_SET_NO":"999","NORAD_CAT_ID":"45084","OBJECT_NAME":"STARLINK-1173","TIME_SYSTEM":"UTC","MEAN_MOTION":"15.06398417","APOAPSIS":"548.308","INCLINATION":"53.0544","RCS_SIZE":"LARGE","CENTER_NAME":"EARTH","PERIAPSIS":"546.129","ECCENTRICITY":"0.00015730","DECAY_DATE":null,"REV_AT_EPOCH":"9694","OBJECT_ID":"2020-006AS","TLE_LINE2":"2 45084  53.0544 197.2039 0001573  74.7529 285.3633 15.06398417 96947","MEAN_MOTION_DDOT":"0.0000000000000","RA_OF_ASC_NODE":"197.2039","MEAN_MOTION_DOT":"-0.00001011","EPHEMERIS_TYPE":"0","MEAN_ELEMENT_THEORY":"SGP4","SITE":"AFETR","ARG_OF_PERICENTER":"74.7529","OBJECT_TYPE":"PAYLOAD","REF_FRAME":"TEME","CLASSIFICATION_TYPE":"U","FILE":"3189402","GP_ID":"188365733","TLE_LINE1":"1 45084U 20006AS  21301.83918068 -.00001011  00000-0 -48985-4 0  9992"},{"MEAN_ANOMALY":"292.8998","LAUNCH_DATE":"2020-01-29","BSTAR":"0.00002469700000","SEMIMAJOR_AXIS":"6925.362","EPOCH":"2021-10-28T20:03:06.724800","PERIOD":"95.592","PERIAPSIS":"546.071","CENTER_NAME":"EARTH","RCS_SIZE":"LARGE","INCLINATION":"53.0542","APOAPSIS":"548.383","MEAN_MOTION":"15.06395622","TIME_SYSTEM":"UTC","OBJECT_NAME":"STARLINK-1179","NORAD_CAT_ID":"45085","ELEMENT_SET_NO":"999","COUNTRY_CODE":"US","EPHEMERIS_TYPE":"0","MEAN_MOTION_DOT":"0.00000086","MEAN_MOTION_DDOT":"0.0000000000000","TLE_LINE2":"2 45085  53.0542 197.2116 0001669  67.2167 292.8998 15.06395622 96945","RA_OF_ASC_NODE":"197.2116","OBJECT_ID":"2020-006AT","REV_AT_EPOCH":"9694","DECAY_DATE":null,"ECCENTRICITY":"0.00016690","GP_ID":"188364485","TLE_LINE1":"1 45085U 20006AT  21301.83549450  .00000086  00000-0  24697-4 0  9991","FILE":"3189402","CLASSIFICATION_TYPE":"U","REF_FRAME":"TEME","OBJECT_TYPE":"PAYLOAD","ARG_OF_PERICENTER":"67.2167","SITE":"AFETR","MEAN_ELEMENT_THEORY":"SGP4"},{"SEMIMAJOR_AXIS":"6923.142","EPOCH":"2021-10-28T09:47:08.809440","PERIOD":"95.546","BSTAR":"0.00031795000000","LAUNCH_DATE":"2020-01-29","MEAN_ANOMALY":"292.9121","COUNTRY_CODE":"US","ELEMENT_SET_NO":"999","NORAD_CAT_ID":"45086","OBJECT_NAME":"STARLINK-1181","MEAN_MOTION":"15.07120234","TIME_SYSTEM":"UTC","RCS_SIZE":"LARGE","CENTER_NAME":"EARTH","PERIAPSIS":"543.538","APOAPSIS":"546.476","INCLINATION":"53.0021","ECCENTRICITY":"0.00021220","DECAY_DATE":null,"OBJECT_ID":"2020-006AU","MEAN_MOTION_DDOT":"0.0000000000000","TLE_LINE2":"2 45086  53.0021 197.1023 0002122  67.2092 292.9121 15.07120234 96806","RA_OF_ASC_NODE":"197.1023","REV_AT_EPOCH":"9680","MEAN_MOTION_DOT":"0.00004549","EPHEMERIS_TYPE":"0","SITE":"AFETR","MEAN_ELEMENT_THEORY":"SGP4","ARG_OF_PERICENTER":"67.2092","FILE":"3189111","OBJECT_TYPE":"PAYLOAD","REF_FRAME":"TEME","CLASSIFICATION_TYPE":"U","GP_ID":"188335941","TLE_LINE1":"1 45086U 20006AU  21301.40774085  .00004549  00000-0  31795-3 0  9993"},{"NORAD_CAT_ID":"45087","OBJECT_NAME":"STARLINK-1185","COUNTRY_CODE":"US","ELEMENT_SET_NO":"999","RCS_SIZE":"LARGE","CENTER_NAME":"EARTH","PERIAPSIS":"545.906","APOAPSIS":"548.557","INCLINATION":"53.0530","MEAN_MOTION":"15.06394027","TIME_SYSTEM":"UTC","BSTAR":"0.00000221630000","SEMIMAJOR_AXIS":"6925.367","PERIOD":"95.593","EPOCH":"2021-10-28T21:17:25.275840","MEAN_ANOMALY":"287.3370","LAUNCH_DATE":"2020-01-29","ARG_OF_PERICENTER":"72.7829","SITE":"AFETR","MEAN_ELEMENT_THEORY":"SGP4","GP_ID":"188365987","TLE_LINE1":"1 45087U 20006AV  21301.88709810 -.00000249  00000-0  22163-5 0  9995","FILE":"3189402","OBJECT_TYPE":"PAYLOAD","REF_FRAME":"TEME","CLASSIFICATION_TYPE":"U","OBJECT_ID":"2020-006AV","TLE_LINE2":"2 45087  53.0530 196.9816 0001914  72.7829 287.3370 15.06394027 96958","RA_OF_ASC_NODE":"196.9816","MEAN_MOTION_DDOT":"0.0000000000000","REV_AT_EPOCH":"9695","ECCENTRICITY":"0.00019140","DECAY_DATE":null,"EPHEMERIS_TYPE":"0","MEAN_MOTION_DOT":"-0.00000249"},{"CLASSIFICATION_TYPE":"U","OBJECT_TYPE":"PAYLOAD","REF_FRAME":"TEME","FILE":"3189402","GP_ID":"188366234","TLE_LINE1":"1 45088U 20006AW  21301.44478903 -.00000843  00000-0 -37706-4 0  9993","MEAN_ELEMENT_THEORY":"SGP4","SITE":"AFETR","ARG_OF_PERICENTER":"77.2804","MEAN_MOTION_DOT":"-0.00000843","EPHEMERIS_TYPE":"0","DECAY_DATE":null,"ECCENTRICITY":"0.00019010","REV_AT_EPOCH":"9688","RA_OF_ASC_NODE":"198.9834","TLE_LINE2":"2 45088  53.0547 198.9834 0001901  77.2804 282.8398 15.06392873 96887","MEAN_MOTION_DDOT":"0.0000000000000","OBJECT_ID":"2020-006AW","TIME_SYSTEM":"UTC","MEAN_MOTION":"15.06392873","INCLINATION":"53.0547","APOAPSIS":"548.552","PERIAPSIS":"545.919","CENTER_NAME":"EARTH","RCS_SIZE":"LARGE","ELEMENT_SET_NO":"999","COUNTRY_CODE":"US","OBJECT_NAME":"STARLINK-1183","NORAD_CAT_ID":"45088","LAUNCH_DATE":"2020-01-29","MEAN_ANOMALY":"282.8398","EPOCH":"2021-10-28T10:40:29.772192","PERIOD":"95.593","SEMIMAJOR_AXIS":"6925.370","BSTAR":"-0.00003770600000"},{"MEAN_MOTION_DOT":"0.00001208","EPHEMERIS_TYPE":"0","DECAY_DATE":null,"ECCENTRICITY":"0.00016870","REV_AT_EPOCH":"9689","MEAN_MOTION_DDOT":"0.0000000000000","TLE_LINE2":"2 45089  53.0544 198.9659 0001687  78.7273 281.3906 15.06396982 96892","RA_OF_ASC_NODE":"198.9659","OBJECT_ID":"2020-006AX","CLASSIFICATION_TYPE":"U","OBJECT_TYPE":"PAYLOAD","REF_FRAME":"TEME","FILE":"3189402","TLE_LINE1":"1 45089U 20006AX  21301.44847100  .00001208  00000-0  10000-3 0  9994","GP_ID":"188364986","MEAN_ELEMENT_THEORY":"SGP4","SITE":"AFETR","ARG_OF_PERICENTER":"78.7273","LAUNCH_DATE":"2020-01-29","MEAN_ANOMALY":"281.3906","EPOCH":"2021-10-28T10:45:47.894400","PERIOD":"95.592","SEMIMAJOR_AXIS":"6925.358","BSTAR":"0.00010000000000","TIME_SYSTEM":"UTC","MEAN_MOTION":"15.06396982","INCLINATION":"53.0544","APOAPSIS":"548.391","CENTER_NAME":"EARTH","PERIAPSIS":"546.054","RCS_SIZE":"LARGE","ELEMENT_SET_NO":"999","COUNTRY_CODE":"US","OBJECT_NAME":"STARLINK-1136","NORAD_CAT_ID":"45089"},{"NORAD_CAT_ID":"45090","OBJECT_NAME":"STARLINK-1176","COUNTRY_CODE":"US","ELEMENT_SET_NO":"999","RCS_SIZE":"LARGE","CENTER_NAME":"EARTH","PERIAPSIS":"546.093","APOAPSIS":"548.351","INCLINATION":"53.0545","MEAN_MOTION":"15.06397174","TIME_SYSTEM":"UTC","BSTAR":"0.00000915280000","SEMIMAJOR_AXIS":"6925.357","EPOCH":"2021-10-28T19:52:29.911008","PERIOD":"95.592","MEAN_ANOMALY":"294.0929","LAUNCH_DATE":"2020-01-29","ARG_OF_PERICENTER":"66.0230","SITE":"AFETR","MEAN_ELEMENT_THEORY":"SGP4","GP_ID":"188365236","TLE_LINE1":"1 45090U 20006AY  21301.82812397 -.00000145  00000-0  91528-5 0  9994","FILE":"3189402","OBJECT_TYPE":"PAYLOAD","REF_FRAME":"TEME","CLASSIFICATION_TYPE":"U","OBJECT_ID":"2020-006AY","MEAN_MOTION_DDOT":"0.0000000000000","TLE_LINE2":"2 45090  53.0545 197.2524 0001630  66.0230 294.0929 15.06397174 96945","RA_OF_ASC_NODE":"197.2524","REV_AT_EPOCH":"9694","ECCENTRICITY":"0.00016300","DECAY_DATE":null,"EPHEMERIS_TYPE":"0","MEAN_MOTION_DOT":"-0.00000145"},{"CLASSIFICATION_TYPE":"U","REF_FRAME":"TEME","OBJECT_TYPE":"PAYLOAD","FILE":"3189111","GP_ID":"188336192","TLE_LINE1":"1 45092U 20006BA  21301.20520105 -.00001290  00000-0 -67697-4 0  9993","MEAN_ELEMENT_THEORY":"SGP4","SITE":"AFETR","ARG_OF_PERICENTER":"70.2258","MEAN_MOTION_DOT":"-0.00001290","EPHEMERIS_TYPE":"0","DECAY_DATE":null,"ECCENTRICITY":"0.00018610","REV_AT_EPOCH":"9684","RA_OF_ASC_NODE":"200.0547","TLE_LINE2":"2 45092  53.0547 200.0547 0001861  70.2258 289.8932 15.06393708 96844","MEAN_MOTION_DDOT":"0.0000000000000","OBJECT_ID":"2020-006BA","TIME_SYSTEM":"UTC","MEAN_MOTION":"15.06393708","INCLINATION":"53.0547","APOAPSIS":"548.522","CENTER_NAME":"EARTH","PERIAPSIS":"545.944","RCS_SIZE":"LARGE","ELEMENT_SET_NO":"999","COUNTRY_CODE":"US","OBJECT_NAME":"STARLINK-1137","NORAD_CAT_ID":"45092","LAUNCH_DATE":"2020-01-29","MEAN_ANOMALY":"289.8932","PERIOD":"95.593","EPOCH":"2021-10-28T04:55:29.370720","SEMIMAJOR_AXIS":"6925.368","BSTAR":"-0.00006769700000"},{"REF_FRAME":"TEME","OBJECT_TYPE":"PAYLOAD","CLASSIFICATION_TYPE":"U","FILE":"3189111","GP_ID":"188337443","TLE_LINE1":"1 45093U 20006BB  21301.20150936  .00001080  00000-0  91407-4 0  9996","MEAN_ELEMENT_THEORY":"SGP4","SITE":"AFETR","ARG_OF_PERICENTER":"74.8190","MEAN_MOTION_DOT":"0.00001080","EPHEMERIS_TYPE":"0","ECCENTRICITY":"0.00018040","DECAY_DATE":null,"REV_AT_EPOCH":"9684","OBJECT_ID":"2020-006BB","TLE_LINE2":"2 45093  53.0546 200.0665 0001804  74.8190 285.2999 15.06402775 96845","MEAN_MOTION_DDOT":"0.0000000000000","RA_OF_ASC_NODE":"200.0665","TIME_SYSTEM":"UTC","MEAN_MOTION":"15.06402775","APOAPSIS":"548.454","INCLINATION":"53.0546","RCS_SIZE":"LARGE","PERIAPSIS":"545.956","CENTER_NAME":"EARTH","COUNTRY_CODE":"US","ELEMENT_SET_NO":"999","NORAD_CAT_ID":"45093","OBJECT_NAME":"STARLINK-1142","LAUNCH_DATE":"2020-01-29","MEAN_ANOMALY":"285.2999","EPOCH":"2021-10-28T04:50:10.408704","PERIOD":"95.592","SEMIMAJOR_AXIS":"6925.340","BSTAR":"0.00009140700000"},{"LAUNCH_DATE":"2020-01-29","MEAN_ANOMALY":"285.7690","SEMIMAJOR_AXIS":"6925.350","PERIOD":"95.592","EPOCH":"2021-10-28T09:58:01.365312","BSTAR":"-0.00004082400000","MEAN_MOTION":"15.06399561","TIME_SYSTEM":"UTC","RCS_SIZE":"LARGE","PERIAPSIS":"546.015","CENTER_NAME":"EARTH","APOAPSIS":"548.415","INCLINATION":"53.0538","COUNTRY_CODE":"US","ELEMENT_SET_NO":"999","NORAD_CAT_ID":"45094","OBJECT_NAME":"STARLINK-1146","MEAN_MOTION_DOT":"-0.00000890","EPHEMERIS_TYPE":"0","ECCENTRICITY":"0.00017330","DECAY_DATE":null,"OBJECT_ID":"2020-006BC","TLE_LINE2":"2 45094  53.0538 199.0923 0001733  74.3490 285.7690 15.06399561 96885","MEAN_MOTION_DDOT":"0.0000000000000","RA_OF_ASC_NODE":"199.0923","REV_AT_EPOCH":"9688","FILE":"3189111","REF_FRAME":"TEME","OBJECT_TYPE":"PAYLOAD","CLASSIFICATION_TYPE":"U","TLE_LINE1":"1 45094U 20006BC  21301.41529358 -.00000890  00000-0 -40824-4 0  9995","GP_ID":"188337194","SITE":"AFETR","MEAN_ELEMENT_THEORY":"SGP4","ARG_OF_PERICENTER":"74.3490"}];
